     2.11           N: GPS NAV DATA                         RINEX VERSION / TYPE
CONVBIN 2.4.3                           20210829 024924 UTC PGM / RUN BY / DATE 
log: logs/21_08_28_19_51_20_brdc.rtcm                       COMMENT             
format: RTCM 3                                              COMMENT             
                                                            END OF HEADER       
24 21  8 28 20  0  0.0  .221023336053E-03  .989075488178E-11  .000000000000E+00
     .101000000000E+03  .339375000000E+02  .515521473539E-08 -.536628888427E+00
     .172853469849E-05  .114380683517E-01  .886060297489E-05  .515371779633E+04
     .590400000000E+06  .372529029846E-07 -.200903089590E+01  .225380063057E-06
     .934730194510E+00  .194031250000E+03  .752412220715E+00 -.845285209522E-08
    -.226438003480E-09  .100000000000E+01  .217200000000E+04  .000000000000E+00
     .280000000000E+01  .000000000000E+00  .279396772385E-08  .101000000000E+03
     .518400000000E+06  .400000000000E+01
25 21  8 28 20  0  0.0  .198954250664E-03  .636646291241E-11  .000000000000E+00
     .500000000000E+01  .540000000000E+02  .448982987658E-08 -.242714963630E+01
     .291503965855E-05  .984153815079E-02  .503845512867E-05  .515358097267E+04
     .590400000000E+06  .409781932831E-07 -.892035653048E+00 -.521540641785E-07
     .959613298740E+00  .282312500000E+03  .970037609709E+00 -.800319050787E-08
     .407159816984E-10  .100000000000E+01  .217200000000E+04  .000000000000E+00
     .200000000000E+01  .000000000000E+00  .558793544769E-08  .500000000000E+01
     .518400000000E+06  .400000000000E+01
26 21  8 28 20  0  0.0  .127920415252E-03  .432009983342E-11  .000000000000E+00
     .500000000000E+01  .668750000000E+02  .498270754977E-08 -.309839280413E+01
     .341422855854E-05  .602506741416E-02  .490620732307E-05  .515361580276E+04
     .590400000000E+06  .167638063431E-07 -.935849015239E+00 -.447034835815E-07
     .940484793435E+00  .275875000000E+03  .294883745857E+00 -.838320633705E-08
     .539308178636E-10  .100000000000E+01  .217200000000E+04  .000000000000E+00
     .200000000000E+01  .000000000000E+00  .698491930962E-08  .500000000000E+01
     .518400000000E+06  .400000000000E+01
27 21  8 28 20  0  0.0 -.184997450560E-03 -.545696821064E-11  .000000000000E+00
     .390000000000E+02 -.377500000000E+02  .417660254369E-08  .128491768874E+01
    -.199489295483E-05  .945953151677E-02  .583007931709E-05  .515369207001E+04
     .590400000000E+06 -.949949026108E-07  .157587968331E+00  .782310962677E-07
     .975397507484E+00  .275406250000E+03  .634786667058E+00 -.815391107170E-08
    -.284297556420E-09  .100000000000E+01  .217200000000E+04  .000000000000E+00
     .200000000000E+01  .000000000000E+00  .186264514923E-08  .390000000000E+02
     .518400000000E+06  .400000000000E+01
28 21  8 28 20  0  0.0  .511475373060E-03 -.693489710102E-11  .000000000000E+00
     .760000000000E+02  .464062500000E+02  .425303429881E-08  .184785045281E+01
     .219978392124E-05  .174736168701E-01  .498071312904E-05  .515372201157E+04
     .590400000000E+06  .312924385071E-06 -.795144315284E+00 -.122934579849E-06
     .971432020797E+00  .283187500000E+03 -.134038202749E+01 -.788425698238E-08
    -.425017703693E-10  .100000000000E+01  .217200000000E+04  .000000000000E+00
     .400000000000E+01  .630000000000E+02 -.111758708954E-07  .760000000000E+02
     .518400000000E+06  .400000000000E+01
29 21  8 28 20  0  0.0 -.403261743486E-03 -.579802872380E-11  .000000000000E+00
     .640000000000E+02 -.350625000000E+02  .387480425829E-08  .135773459706E+01
    -.181980431080E-05  .196453242097E-02  .599958002567E-05  .515358860397E+04
     .590400000000E+06  .521540641785E-07  .231526346722E+00  .558793544769E-08
     .983597556843E+00  .274375000000E+03  .231570194765E+01 -.787389940809E-08
    -.106790162525E-09  .100000000000E+01  .217200000000E+04  .000000000000E+00
     .200000000000E+01  .000000000000E+00 -.102445483208E-07  .640000000000E+02
     .518400000000E+06  .400000000000E+01
30 21  8 28 20  0  0.0 -.467117875814E-03 -.397903932026E-11  .000000000000E+00
     .570000000000E+02  .410000000000E+02  .492306220816E-08 -.164060241658E+01
     .205449759960E-05  .536861328874E-02  .974908471107E-05  .515366078949E+04
     .590400000000E+06 -.558793544769E-08 -.191341346428E+01 -.949949026108E-07
     .936436142781E+00  .177687500000E+03 -.273348601481E+01 -.814891086342E-08
    -.106433004790E-09  .100000000000E+01  .217200000000E+04  .000000000000E+00
     .200000000000E+01  .000000000000E+00  .372529029846E-08  .570000000000E+02
     .518400000000E+06  .400000000000E+01
31 21  8 28 19 59 44.0 -.136778224260E-03 -.204636307899E-11  .000000000000E+00
     .450000000000E+02  .459062500000E+02  .456804742037E-08 -.198867090177E+01
     .227615237236E-05  .101171075366E-01  .953674316406E-05  .515360049057E+04
     .590384000000E+06  .633299350739E-07 -.191172582150E+01 -.143423676491E-06
     .955524802586E+00  .193875000000E+03  .285449619768E+00 -.794675958586E-08
    -.217866217860E-10  .100000000000E+01  .217200000000E+04  .000000000000E+00
     .200000000000E+01  .000000000000E+00 -.130385160446E-07  .450000000000E+02
     .518400000000E+06  .400000000000E+01
32 21  8 28 20  0  0.0  .421050935984E-05 -.306954461848E-11  .000000000000E+00
     .440000000000E+02 -.306562500000E+02  .475055502254E-08  .204876424833E+01
    -.161677598953E-05  .508130062371E-02  .793673098087E-05  .515370868111E+04
     .590400000000E+06 -.126659870148E-06 -.299079237645E+01 -.800937414169E-07
     .957913453763E+00  .226062500000E+03 -.236922541982E+01 -.804069206996E-08
    -.224652214809E-09  .100000000000E+01  .217200000000E+04  .000000000000E+00
     .200000000000E+01  .000000000000E+00  .465661287308E-09  .440000000000E+02
     .518400000000E+06  .400000000000E+01
 1 21  8 28 19 59 44.0  .584004446864E-03 -.112549969344E-10  .000000000000E+00
     .100000000000E+01 -.313437500000E+02  .389801951102E-08 -.911790604744E+00
    -.137649476528E-05  .110692406306E-01  .906176865101E-05  .515367984581E+04
     .590384000000E+06  .139698386192E-06  .121572679112E+01  .199303030968E-06
     .985154663440E+00  .217437500000E+03  .887001190177E+00 -.784246952748E-08
     .235724104569E-09  .100000000000E+01  .217200000000E+04  .000000000000E+00
     .200000000000E+01  .000000000000E+00  .512227416039E-08  .100000000000E+01
     .518400000000E+06  .400000000000E+01
 2 21  8 28 20  0  0.0 -.629113055766E-03 -.227373675443E-11  .000000000000E+00
     .870000000000E+02 -.239062500000E+02  .445947146917E-08 -.632584140023E+00
    -.132806599140E-05  .202300078236E-01  .876374542713E-05  .515374668503E+04
     .590400000000E+06 -.284984707832E-06  .112998284962E+01  .115483999252E-06
     .963745729249E+00  .221218750000E+03 -.149703194934E+01 -.835320508738E-08
     .316084594764E-09  .100000000000E+01  .217200000000E+04  .000000000000E+00
     .200000000000E+01  .000000000000E+00 -.176951289177E-07  .870000000000E+02
     .518400000000E+06  .400000000000E+01
 3 21  8 28 20  0  0.0 -.270115211606E-03 -.130739863380E-10  .000000000000E+00
     .460000000000E+02 -.126562500000E+02  .462126392276E-08 -.199896865862E+01
    -.653788447380E-06  .385459919926E-02  .641122460365E-05  .515377895737E+04
     .590400000000E+06  .894069671631E-07  .225281228731E+01  .149011611938E-07
     .970352931460E+00  .260625000000E+03  .962172837766E+00 -.803212028434E-08
     .375015620906E-09  .100000000000E+01  .217200000000E+04  .000000000000E+00
     .200000000000E+01  .000000000000E+00  .186264514923E-08  .460000000000E+02
     .518400000000E+06  .400000000000E+01
 4 21  8 28 20  0  0.0 -.204207375646E-03 -.227373675443E-12  .000000000000E+00
     .470000000000E+02 -.282812500000E+02  .474948354934E-08  .830738216656E+00
    -.146776437759E-05  .135994947050E-02  .781565904617E-05  .515370157051E+04
     .590400000000E+06  .372529029846E-08 -.294966624555E+01 -.614672899246E-07
     .961073203208E+00  .225312500000E+03 -.302427438295E+01 -.810462330438E-08
    -.307155651409E-09  .100000000000E+01  .217200000000E+04  .000000000000E+00
     .200000000000E+01  .000000000000E+00 -.419095158577E-08  .303000000000E+03
     .518400000000E+06  .400000000000E+01
 5 21  8 28 20  0  0.0 -.526038929820E-04 -.125055521494E-11  .000000000000E+00
     .640000000000E+02 -.125937500000E+02  .488734643474E-08  .170084454776E+01
    -.625848770142E-06  .611082394607E-02  .677071511745E-05  .515357672310E+04
     .590400000000E+06 -.201165676117E-06  .221471355859E+01 -.651925802231E-07
     .957304764272E+00  .249468750000E+03  .978071089752E+00 -.822712840721E-08
     .299298181256E-09  .100000000000E+01  .217200000000E+04  .000000000000E+00
     .200000000000E+01  .000000000000E+00 -.111758708954E-07  .640000000000E+02
     .518400000000E+06  .400000000000E+01
 6 21  8 28 20  0  0.0  .640810467303E-04  .682121026330E-11  .000000000000E+00
     .520000000000E+02 -.275000000000E+02  .389909098422E-08 -.612568840111E+00
    -.168010592461E-05  .214540748857E-02  .840425491333E-05  .515356654549E+04
     .590400000000E+06 -.447034835815E-07  .120747236510E+01 -.204890966415E-07
     .984587602746E+00  .230656250000E+03 -.991674320244E+00 -.776782356103E-08
     .246438836595E-09  .100000000000E+01  .217200000000E+04  .000000000000E+00
     .200000000000E+01  .000000000000E+00  .372529029846E-08  .520000000000E+02
     .518400000000E+06  .400000000000E+01
